ORBCOMM FM33            
1 25983U 99065D   24128.06920383  .00001298  00000+0  47488-3 0  9997
2 25983  45.0281 126.2778 0007862 192.1285 215.7214 14.37647093277577
ORBCOMM FM36            
1 25984U 99065E   24129.48634348  .00001587  00000+0  59503-3 0  9990
2 25984  45.0391 205.0330 0001430  54.4052 305.6929 14.35548211276804
ORBCOMM FM35            
1 25985U 99065F   24129.31882258  .00001209  00000+0  46878-3 0  9990
2 25985  45.0392 208.4646 0004044 198.8345 161.2353 14.35123352276773
ORBCOMM FM34            
1 25986U 99065G   24129.49804781  .00001329  00000+0  51074-3 0  9992
2 25986  45.0386 208.1538 0002648 146.4908 213.6107 14.35092720276768
ORBCOMM FM38            
1 33060U 08031A   24129.26708468  .00003245  00000+0  47903-3 0  9992
2 33060  48.4410  79.3981 0005099 103.0369 257.1114 14.77493808854781
ORBCOMM FM41            
1 33061U 08031B   24129.17962998  .00003036  00000+0  45284-3 0  9991
2 33061  48.4442  86.4276 0004281  86.4899 287.3708 14.77216619854728
ORBCOMM FM29            
1 33062U 08031C   24128.65609611  .00002853  00000+0  42804-3 0  9995
2 33062  48.4390  96.9421 0006112  82.5633  87.3140 14.77145324854112
ORBCOMM FM39            
1 33063U 08031D   24129.19685551  .00002599  00000+0  40152-3 0  9994
2 33063  48.4395 114.8810 0007130  59.0194 301.1419 14.76158646854310
